{
  "type": "FeatureCollection",
  "features": [
    {
      "type": "Feature",
      "properties": {
        "norad_id": 38068,
        "name": "COSMOS 2251 DEB",
        "group": "cosmos-2251-debris",
        "lat": 47.823550602191524,
        "lon": 122.58436198365949,
        "alt_km": 763.4902939314661,
        "timestamp": "2025-12-05T18:53:13.679773+00:00",
        "meta_object_name": "COSMOS 2251 DEB",
        "meta_object_id": "1993-036BSA",
        "meta_epoch": "2025-11-26T00:12:22.263264",
        "meta_mean_motion": 14.35960004,
        "meta_eccentricity": 0.00240903,
        "meta_inclination": 74.0219,
        "meta_ra_of_asc_node": 338.9788,
        "meta_arg_of_pericenter": 72.1007,
        "meta_mean_anomaly": 288.2769,
        "meta_ephemeris_type": 0,
        "meta_classification_type": "U",
        "meta_norad_cat_id": 38068,
        "meta_element_set_no": 999,
        "meta_rev_at_epoch": 66406,
        "meta_bstar": 0.00028750999,
        "meta_mean_motion_dot": 8.11e-06,
        "meta_mean_motion_ddot": 0,
        "tle_line1": "1 38068U 93036BSA 25330.00859101  .00000811  00000+0  28751-3 0  9998",
        "tle_line2": "2 38068  74.0219 338.9788 0024090  72.1007 288.2769 14.35960004664064"
      },
      "geometry": {
        "type": "Point",
        "coordinates": [
          122.58436198365949,
          47.823550602191524
        ]
      }
    },
    {
      "type": "Feature",
      "properties": {
        "norad_id": 38197,
        "name": "COSMOS 2251 DEB",
        "group": "cosmos-2251-debris",
        "lat": -67.75704926501591,
        "lon": -124.51940543790938,
        "alt_km": 567.5357006148533,
        "timestamp": "2025-12-05T18:53:13.679783+00:00",
        "meta_object_name": "COSMOS 2251 DEB",
        "meta_object_id": "1993-036BSM",
        "meta_epoch": "2025-12-03T10:19:00.710112",
        "meta_mean_motion": 14.73077907,
        "meta_eccentricity": 0.01286379,
        "meta_inclination": 73.9396,
        "meta_ra_of_asc_node": 15.3185,
        "meta_arg_of_pericenter": 255.0006,
        "meta_mean_anomaly": 103.6899,
        "meta_ephemeris_type": 0,
        "meta_classification_type": "U",
        "meta_norad_cat_id": 38197,
        "meta_element_set_no": 999,
        "meta_rev_at_epoch": 85618,
        "meta_bstar": 0.0059536549,
        "meta_mean_motion_dot": 0.00043936,
        "meta_mean_motion_ddot": 0,
        "tle_line1": "1 38197U 93036BSM 25337.42986933  .00043936  00000+0  59537-2 0  9998",
        "tle_line2": "2 38197  73.9396  15.3185 0128637 255.0006 103.6899 14.73077907856184"
      },
      "geometry": {
        "type": "Point",
        "coordinates": [
          -124.51940543790938,
          -67.75704926501591
        ]
      }
    },
    {
      "type": "Feature",
      "properties": {
        "norad_id": 38199,
        "name": "COSMOS 2251 DEB",
        "group": "cosmos-2251-debris",
        "lat": -60.24083626845789,
        "lon": -76.1706660222389,
        "alt_km": 1140.839186293395,
        "timestamp": "2025-12-05T18:53:13.679793+00:00",
        "meta_object_name": "COSMOS 2251 DEB",
        "meta_object_id": "1993-036BSP",
        "meta_epoch": "2025-12-04T22:19:26.548896",
        "meta_mean_motion": 13.64780719,
        "meta_eccentricity": 0.0369323,
        "meta_inclination": 73.9557,
        "meta_ra_of_asc_node": 75.019,
        "meta_arg_of_pericenter": 3.0828,
        "meta_mean_anomaly": 357.2436,
        "meta_ephemeris_type": 0,
        "meta_classification_type": "U",
        "meta_norad_cat_id": 38199,
        "meta_element_set_no": 999,
        "meta_rev_at_epoch": 60915,
        "meta_bstar": 0.0007297,
        "meta_mean_motion_dot": 9.14e-06,
        "meta_mean_motion_ddot": 0,
        "tle_line1": "1 38199U 93036BSP 25338.93016839  .00000914  00000+0  72970-3 0  9992",
        "tle_line2": "2 38199  73.9557  75.0190 0369323   3.0828 357.2436 13.64780719609154"
      },
      "geometry": {
        "type": "Point",
        "coordinates": [
          -76.1706660222389,
          -60.24083626845789
        ]
      }
    },
    {
      "type": "Feature",
      "properties": {
        "norad_id": 38208,
        "name": "COSMOS 2251 DEB",
        "group": "cosmos-2251-debris",
        "lat": -43.068227109547145,
        "lon": 77.16122185127372,
        "alt_km": 627.0724463074303,
        "timestamp": "2025-12-05T18:53:13.679803+00:00",
        "meta_object_name": "COSMOS 2251 DEB",
        "meta_object_id": "1993-036BSY",
        "meta_epoch": "2025-12-02T15:06:31.372992",
        "meta_mean_motion": 14.83188605,
        "meta_eccentricity": 0.00039653,
        "meta_inclination": 74.0061,
        "meta_ra_of_asc_node": 98.9729,
        "meta_arg_of_pericenter": 183.0621,
        "meta_mean_anomaly": 198.654,
        "meta_ephemeris_type": 0,
        "meta_classification_type": "U",
        "meta_norad_cat_id": 38208,
        "meta_element_set_no": 999,
        "meta_rev_at_epoch": 71009,
        "meta_bstar": 0.003692922,
        "meta_mean_motion_dot": 0.0003026,
        "meta_mean_motion_ddot": 0,
        "tle_line1": "1 38208U 93036BSY 25336.62952978  .00030260  00000+0  36929-2 0  9990",
        "tle_line2": "2 38208  74.0061  98.9729 0003965 183.0621 198.6540 14.83188605710093"
      },
      "geometry": {
        "type": "Point",
        "coordinates": [
          77.16122185127372,
          -43.068227109547145
        ]
      }
    },
    {
      "type": "Feature",
      "properties": {
        "norad_id": 38212,
        "name": "COSMOS 2251 DEB",
        "group": "cosmos-2251-debris",
        "lat": 52.09385034031036,
        "lon": 111.78495193888222,
        "alt_km": 647.3662643059306,
        "timestamp": "2025-12-05T18:53:13.679812+00:00",
        "meta_object_name": "COSMOS 2251 DEB",
        "meta_object_id": "1993-036BTC",
        "meta_epoch": "2025-11-30T02:08:11.826528",
        "meta_mean_motion": 14.77531577,
        "meta_eccentricity": 0.00935039,
        "meta_inclination": 74.0506,
        "meta_ra_of_asc_node": 101.4043,
        "meta_arg_of_pericenter": 172.1987,
        "meta_mean_anomaly": 188.0671,
        "meta_ephemeris_type": 0,
        "meta_classification_type": "U",
        "meta_norad_cat_id": 38212,
        "meta_element_set_no": 999,
        "meta_rev_at_epoch": 81123,
        "meta_bstar": 0.000758158,
        "meta_mean_motion_dot": 5.788e-05,
        "meta_mean_motion_ddot": 0,
        "tle_line1": "1 38212U 93036BTC 25334.08902577  .00005788  00000+0  75816-3 0  9999",
        "tle_line2": "2 38212  74.0506 101.4043 0093503 172.1987 188.0671 14.77531577811231"
      },
      "geometry": {
        "type": "Point",
        "coordinates": [
          111.78495193888222,
          52.09385034031036
        ]
      }
    },
    {
      "type": "Feature",
      "properties": {
        "norad_id": 38220,
        "name": "COSMOS 2251 DEB",
        "group": "cosmos-2251-debris",
        "lat": -10.720892242750804,
        "lon": -94.60526262900666,
        "alt_km": 595.587235107525,
        "timestamp": "2025-12-05T18:53:13.679823+00:00",
        "meta_object_name": "COSMOS 2251 DEB",
        "meta_object_id": "1993-036BTL",
        "meta_epoch": "2025-12-02T14:23:55.852800",
        "meta_mean_motion": 14.91852197,
        "meta_eccentricity": 0.0003685,
        "meta_inclination": 74.0146,
        "meta_ra_of_asc_node": 88.6858,
        "meta_arg_of_pericenter": 99.6245,
        "meta_mean_anomaly": 260.5354,
        "meta_ephemeris_type": 0,
        "meta_classification_type": "U",
        "meta_norad_cat_id": 38220,
        "meta_element_set_no": 999,
        "meta_rev_at_epoch": 71219,
        "meta_bstar": 0.0045511067,
        "meta_mean_motion_dot": 0.00046254,
        "meta_mean_motion_ddot": 0,
        "tle_line1": "1 38220U 93036BTL 25336.59995200  .00046254  00000+0  45511-2 0  9992",
        "tle_line2": "2 38220  74.0146  88.6858 0003685  99.6245 260.5354 14.91852197712191"
      },
      "geometry": {
        "type": "Point",
        "coordinates": [
          -94.60526262900666,
          -10.720892242750804
        ]
      }
    },
    {
      "type": "Feature",
      "properties": {
        "norad_id": 38479,
        "name": "COSMOS 2251 DEB",
        "group": "cosmos-2251-debris",
        "lat": -56.74320194090549,
        "lon": 43.0608777047569,
        "alt_km": 745.8506850921867,
        "timestamp": "2025-12-05T18:53:13.679833+00:00",
        "meta_object_name": "COSMOS 2251 DEB",
        "meta_object_id": "1993-036BTP",
        "meta_epoch": "2025-11-15T12:46:06.719808",
        "meta_mean_motion": 14.37875238,
        "meta_eccentricity": 0.00846922,
        "meta_inclination": 74.0077,
        "meta_ra_of_asc_node": 234.4912,
        "meta_arg_of_pericenter": 348.2771,
        "meta_mean_anomaly": 195.3627,
        "meta_ephemeris_type": 0,
        "meta_classification_type": "U",
        "meta_norad_cat_id": 38479,
        "meta_element_set_no": 999,
        "meta_rev_at_epoch": 64296,
        "meta_bstar": 0.00281077,
        "meta_mean_motion_dot": 8.824e-05,
        "meta_mean_motion_ddot": 0,
        "tle_line1": "1 38479U 93036BTP 25319.53202222  .00008824  00000+0  28108-2 0  9992",
        "tle_line2": "2 38479  74.0077 234.4912 0084692 348.2771 195.3627 14.37875238642962"
      },
      "geometry": {
        "type": "Point",
        "coordinates": [
          43.0608777047569,
          -56.74320194090549
        ]
      }
    }
  ]
}